1 08820U 76039A   03345.68729283  .00000005  00000-0  10000-3 0  9813
2 08820 109.8333 242.3692 0044336 263.3949  96.1739  6.38664628388396
